{
  "type": "FeatureCollection",
  "features": [
    {
      "type": "Feature",
      "properties": {
        "norad_id": 35839,
        "name": "COSMOS 2251 DEB",
        "group": "cosmos-2251-debris",
        "lat": -23.377929214567775,
        "lon": -74.60429447291507,
        "alt_km": 386.34823763560235,
        "timestamp": "2025-12-26T21:25:53.406247+00:00",
        "meta_object_name": "COSMOS 2251 DEB",
        "meta_object_id": "1993-036ATM",
        "meta_epoch": "2025-12-26T06:11:03.765408",
        "meta_mean_motion": 15.63732504,
        "meta_eccentricity": 0.00098839,
        "meta_inclination": 74.2061,
        "meta_ra_of_asc_node": 293.8322,
        "meta_arg_of_pericenter": 140.9264,
        "meta_mean_anomaly": 219.2673,
        "meta_ephemeris_type": 0,
        "meta_classification_type": "U",
        "meta_norad_cat_id": 35839,
        "meta_element_set_no": 999,
        "meta_rev_at_epoch": 88778,
        "meta_bstar": 0.0063043734,
        "meta_mean_motion_dot": 0.0063746,
        "meta_mean_motion_ddot": 0,
        "tle_line1": "1 35839U 93036ATM 25360.25768247  .00637460  00000+0  63044-2 0  9990",
        "tle_line2": "2 35839  74.2061 293.8322 0009883 140.9264 219.2673 15.63732504887787"
      },
      "geometry": {
        "type": "Point",
        "coordinates": [
          -74.60429447291507,
          -23.377929214567775
        ]
      }
    },
    {
      "type": "Feature",
      "properties": {
        "norad_id": 35840,
        "name": "COSMOS 2251 DEB",
        "group": "cosmos-2251-debris",
        "lat": 33.72533228080607,
        "lon": -59.149629886044096,
        "alt_km": 795.598529798187,
        "timestamp": "2025-12-26T21:25:53.406257+00:00",
        "meta_object_name": "COSMOS 2251 DEB",
        "meta_object_id": "1993-036ATN",
        "meta_epoch": "2025-12-24T15:20:22.552224",
        "meta_mean_motion": 14.37934455,
        "meta_eccentricity": 0.01160056,
        "meta_inclination": 73.9312,
        "meta_ra_of_asc_node": 136.1205,
        "meta_arg_of_pericenter": 35.3241,
        "meta_mean_anomaly": 325.5527,
        "meta_ephemeris_type": 0,
        "meta_classification_type": "U",
        "meta_norad_cat_id": 35840,
        "meta_element_set_no": 999,
        "meta_rev_at_epoch": 85462,
        "meta_bstar": 0.001538727,
        "meta_mean_motion_dot": 5e-05,
        "meta_mean_motion_ddot": 0,
        "tle_line1": "1 35840U 93036ATN 25358.63914991  .00005000  00000+0  15387-2 0  9996",
        "tle_line2": "2 35840  73.9312 136.1205 0116005  35.3241 325.5527 14.37934455854625"
      },
      "geometry": {
        "type": "Point",
        "coordinates": [
          -59.149629886044096,
          33.72533228080607
        ]
      }
    },
    {
      "type": "Feature",
      "properties": {
        "norad_id": 35883,
        "name": "COSMOS 2251 DEB",
        "group": "cosmos-2251-debris",
        "lat": 64.69528097811128,
        "lon": 80.6990493749624,
        "alt_km": 726.0450871407184,
        "timestamp": "2025-12-26T21:25:53.406267+00:00",
        "meta_object_name": "COSMOS 2251 DEB",
        "meta_object_id": "1993-036ATW",
        "meta_epoch": "2025-12-26T09:36:44.445888",
        "meta_mean_motion": 14.50635695,
        "meta_eccentricity": 0.00828039,
        "meta_inclination": 74.022,
        "meta_ra_of_asc_node": 44.3242,
        "meta_arg_of_pericenter": 170.6143,
        "meta_mean_anomaly": 209.7345,
        "meta_ephemeris_type": 0,
        "meta_classification_type": "U",
        "meta_norad_cat_id": 35883,
        "meta_element_set_no": 999,
        "meta_rev_at_epoch": 62584,
        "meta_bstar": 0.00023110106,
        "meta_mean_motion_dot": 9.18e-06,
        "meta_mean_motion_ddot": 0,
        "tle_line1": "1 35883U 93036ATW 25360.40051442  .00000918  00000+0  23110-3 0  9991",
        "tle_line2": "2 35883  74.0220  44.3242 0082803 170.6143 209.7345 14.50635695625845"
      },
      "geometry": {
        "type": "Point",
        "coordinates": [
          80.6990493749624,
          64.69528097811128
        ]
      }
    },
    {
      "type": "Feature",
      "properties": {
        "norad_id": 35884,
        "name": "COSMOS 2251 DEB",
        "group": "cosmos-2251-debris",
        "lat": -36.06486649568527,
        "lon": -61.68491632029635,
        "alt_km": 862.9159002801662,
        "timestamp": "2025-12-26T21:25:53.406277+00:00",
        "meta_object_name": "COSMOS 2251 DEB",
        "meta_object_id": "1993-036ATX",
        "meta_epoch": "2025-12-23T04:21:24.693984",
        "meta_mean_motion": 14.25720371,
        "meta_eccentricity": 0.01085787,
        "meta_inclination": 73.9917,
        "meta_ra_of_asc_node": 317.1007,
        "meta_arg_of_pericenter": 101.1734,
        "meta_mean_anomaly": 260.1642,
        "meta_ephemeris_type": 0,
        "meta_classification_type": "U",
        "meta_norad_cat_id": 35884,
        "meta_element_set_no": 999,
        "meta_rev_at_epoch": 22506,
        "meta_bstar": 0.0013065465,
        "meta_mean_motion_dot": 3.275e-05,
        "meta_mean_motion_ddot": 0,
        "tle_line1": "1 35884U 93036ATX 25357.18153581  .00003275  00000+0  13065-2 0  9996",
        "tle_line2": "2 35884  73.9917 317.1007 0108578 101.1734 260.1642 14.25720371225069"
      },
      "geometry": {
        "type": "Point",
        "coordinates": [
          -61.68491632029635,
          -36.06486649568527
        ]
      }
    },
    {
      "type": "Feature",
      "properties": {
        "norad_id": 35885,
        "name": "COSMOS 2251 DEB",
        "group": "cosmos-2251-debris",
        "lat": -4.125029183991834,
        "lon": -92.44729689261973,
        "alt_km": 752.9246717120122,
        "timestamp": "2025-12-26T21:25:53.406287+00:00",
        "meta_object_name": "COSMOS 2251 DEB",
        "meta_object_id": "1993-036ATY",
        "meta_epoch": "2025-12-26T11:25:48.817344",
        "meta_mean_motion": 14.37545271,
        "meta_eccentricity": 0.00238791,
        "meta_inclination": 74.0284,
        "meta_ra_of_asc_node": 269.5032,
        "meta_arg_of_pericenter": 347.1364,
        "meta_mean_anomaly": 12.9178,
        "meta_ephemeris_type": 0,
        "meta_classification_type": "U",
        "meta_norad_cat_id": 35885,
        "meta_element_set_no": 999,
        "meta_rev_at_epoch": 65213,
        "meta_bstar": 0.00029496367,
        "meta_mean_motion_dot": 8.61e-06,
        "meta_mean_motion_ddot": 0,
        "tle_line1": "1 35885U 93036ATY 25360.47625946  .00000861  00000+0  29496-3 0  9996",
        "tle_line2": "2 35885  74.0284 269.5032 0023879 347.1364  12.9178 14.37545271652134"
      },
      "geometry": {
        "type": "Point",
        "coordinates": [
          -92.44729689261973,
          -4.125029183991834
        ]
      }
    },
    {
      "type": "Feature",
      "properties": {
        "norad_id": 35888,
        "name": "COSMOS 2251 DEB",
        "group": "cosmos-2251-debris",
        "lat": -65.53046052824146,
        "lon": -69.25780014041949,
        "alt_km": 738.6509598451703,
        "timestamp": "2025-12-26T21:25:53.406298+00:00",
        "meta_object_name": "COSMOS 2251 DEB",
        "meta_object_id": "1993-036AUB",
        "meta_epoch": "2025-12-24T15:25:47.112960",
        "meta_mean_motion": 14.58358709,
        "meta_eccentricity": 0.00479961,
        "meta_inclination": 74.034,
        "meta_ra_of_asc_node": 334.0069,
        "meta_arg_of_pericenter": 102.564,
        "meta_mean_anomaly": 258.0899,
        "meta_ephemeris_type": 0,
        "meta_classification_type": "U",
        "meta_norad_cat_id": 35888,
        "meta_element_set_no": 999,
        "meta_rev_at_epoch": 86447,
        "meta_bstar": 0.00043220593,
        "meta_mean_motion_dot": 2.004e-05,
        "meta_mean_motion_ddot": 0,
        "tle_line1": "1 35888U 93036AUB 25358.64290640  .00002004  00000+0  43221-3 0  9997",
        "tle_line2": "2 35888  74.0340 334.0069 0047996 102.5640 258.0899 14.58358709864470"
      },
      "geometry": {
        "type": "Point",
        "coordinates": [
          -69.25780014041949,
          -65.53046052824146
        ]
      }
    },
    {
      "type": "Feature",
      "properties": {
        "norad_id": 35890,
        "name": "COSMOS 2251 DEB",
        "group": "cosmos-2251-debris",
        "lat": -63.34056371407943,
        "lon": -179.38535889887032,
        "alt_km": 680.9576143644153,
        "timestamp": "2025-12-26T21:25:53.406308+00:00",
        "meta_object_name": "COSMOS 2251 DEB",
        "meta_object_id": "1993-036AUD",
        "meta_epoch": "2025-12-21T00:05:00.914784",
        "meta_mean_motion": 14.57585084,
        "meta_eccentricity": 0.00541447,
        "meta_inclination": 73.9362,
        "meta_ra_of_asc_node": 226.8978,
        "meta_arg_of_pericenter": 350.2956,
        "meta_mean_anomaly": 9.7156,
        "meta_ephemeris_type": 0,
        "meta_classification_type": "U",
        "meta_norad_cat_id": 35890,
        "meta_element_set_no": 999,
        "meta_rev_at_epoch": 65271,
        "meta_bstar": 0.0010880234,
        "meta_mean_motion_dot": 5.027e-05,
        "meta_mean_motion_ddot": 0,
        "tle_line1": "1 35890U 93036AUD 25355.00348281  .00005027  00000+0  10880-2 0  9994",
        "tle_line2": "2 35890  73.9362 226.8978 0054144 350.2956   9.7156 14.57585084652713"
      },
      "geometry": {
        "type": "Point",
        "coordinates": [
          -179.38535889887032,
          -63.34056371407943
        ]
      }
    }
  ]
}